[{"OBJECT_NAME":"HAWK-11A","OBJECT_ID":"2024-247F","EPOCH":"2026-03-09T12:17:43.893312","MEAN_MOTION":15.28849427,"ECCENTRICITY":0.00054663,"INCLINATION":44.9941,"RA_OF_ASC_NODE":114.3328,"ARG_OF_PERICENTER":327.3713,"MEAN_ANOMALY":32.6832,"EPHEMERIS_TYPE":0,"CLASSIFICATION_TYPE":"U","NORAD_CAT_ID":62382,"ELEMENT_SET_NO":999,"REV_AT_EPOCH":6774,"BSTAR":0.00034106017,"MEAN_MOTION_DOT":9.457e-5,"MEAN_MOTION_DDOT":0},{"OBJECT_NAME":"STARLINK-35741","OBJECT_ID":"2025-247H","EPOCH":"2026-03-09T15:44:14.627040","MEAN_MOTION":15.30190727,"ECCENTRICITY":0.00010933,"INCLINATION":53.1606,"RA_OF_ASC_NODE":191.2364,"ARG_OF_PERICENTER":82.5392,"MEAN_ANOMALY":277.5733,"EPHEMERIS_TYPE":0,"CLASSIFICATION_TYPE":"U","NORAD_CAT_ID":66272,"ELEMENT_SET_NO":999,"REV_AT_EPOCH":2108,"BSTAR":0.0011470433,"MEAN_MOTION_DOT":0.00033758,"MEAN_MOTION_DDOT":0}]
