HAWK-11A                
1 62382U 24247F   26068.51231358  .00009457  00000+0  34106-3 0  9991
2 62382  44.9941 114.3328 0005466 327.3713  32.6832 15.28849427 67741
STARLINK-35741          
1 66272U 25247H   26068.65572484  .00033758  00000+0  11470-2 0  9996
2 66272  53.1606 191.2364 0001093  82.5392 277.5733 15.30190727 21084
